ONEWEB-0054             
1 45158U 20008AD  26157.62172257 -.00000488  00000+0 -14337-2 0  9997
2 45158  87.8859  38.3682 0001866  82.9395 277.1945 13.10373460306649
ONEWEB-0056             
1 45159U 20008AE  26157.59341690  .00000306  00000+0  83916-3 0  9990
2 45159  87.8841  38.3705 0001907  93.3710 266.7635 13.10370695306793
ONEWEB-0057             
1 45160U 20008AF  26157.61024520 -.00000443  00000+0 -13059-2 0  9999
2 45160  87.8846  38.3787 0002267  75.1476 284.9903 13.10370485306963
ONEWEB-0058             
1 45161U 20008AG  26157.36790682  .00000123  00000+0  31476-3 0  9998
2 45161  87.8836  38.4342 0001558  79.4147 280.7155 13.10369435307007
ONEWEB-0059             
1 45162U 20008AH  26157.59366669  .00000307  00000+0  84268-3 0  9999
2 45162  87.8837  38.3877 0001780  74.6392 285.4932 13.10369807306936
ONEWEB-0062             
1 45163U 20008AJ  26157.61660862 -.00000611  00000+0 -17854-2 0  9991
2 45163  87.8846  38.3696 0001381  84.7301 275.3984 13.10371794306804
ONEWEB-0065             
1 45164U 20008AK  26157.42075670  .00000518  00000+0  14474-2 0  9997
2 45164  87.8848  38.4168 0002120  84.6896 275.4473 13.10374736306478
ONEWEB-0066             
1 45424U 20020A   26157.61774205  .00000543  00000+0  14967-2 0  9996
2 45424  87.8900  23.1750 0001733  78.7801 281.3522 13.11417402301298
ONEWEB-0067             
1 45425U 20020B   26157.57937413 -.00000478  00000+0 -13842-2 0  9994
2 45425  87.8923  23.1027 0002007  83.8184 276.3173 13.11424157301344
ONEWEB-0080             
1 45426U 20020C   26157.57887625 -.00000539  00000+0 -15565-2 0  9996
2 45426  87.8905  23.1775 0001445  87.9055 272.2239 13.11416528301310
ONEWEB-0090             
1 45427U 20020D   26157.60770639  .00000422  00000+0  11537-2 0  9991
2 45427  87.8907  23.1768 0001744  86.7947 273.3380 13.11418475301282
ONEWEB-0061             
1 45428U 20020E   26157.86852801 -.00000035  00000+0 -13332-3 0  9990
2 45428  87.8905  23.1096 0001786  82.8037 277.3294 13.11416042301273
ONEWEB-0081             
1 45429U 20020F   26157.85002602  .00000477  00000+0  13109-2 0  9995
2 45429  87.8902  23.1243 0001882  79.0406 281.0934 13.11416870301384
ONEWEB-0069             
1 45430U 20020G   26157.85185463  .00000419  00000+0  11465-2 0  9993
2 45430  87.8903  23.1265 0001816  81.9430 278.1904 13.11417813301312
ONEWEB-0031             
1 45431U 20020H   26157.58213074 -.00000470  00000+0 -13626-2 0  9994
2 45431  87.8895  23.1860 0001602  87.6654 272.4657 13.11417492301267
ONEWEB-0027             
1 45432U 20020J   26157.85036462 -.00000006  00000+0 -49096-4 0  9996
2 45432  87.9154   7.9178 0001772  97.4650 262.6681 13.16053829304998
ONEWEB-0064             
1 45433U 20020K   26157.58042913 -.00000486  00000+0 -14078-2 0  9997
2 45433  87.8901  23.1780 0001680  90.0536 270.0785 13.11418997301291
ONEWEB-0018             
1 45434U 20020L   26157.61265674  .00000555  00000+0  15288-2 0  9992
2 45434  87.8903  23.1712 0001597  71.9473 288.1829 13.11418709301249
ONEWEB-0083             
1 45435U 20020M   26157.60262777  .00000304  00000+0  82157-3 0  9995
2 45435  87.8909  23.1663 0001726  83.0799 277.0525 13.11418352301288
ONEWEB-0095             
1 45436U 20020N   26157.59414149 -.00000069  00000+0 -22999-3 0  9994
2 45436  87.8909  23.1763 0002402  99.1903 260.9496 13.11417948301285
ONEWEB-0092             
1 45437U 20020P   26157.85551531  .00000250  00000+0  66494-3 0  9999
2 45437  87.8904  23.1168 0002116  87.1981 272.9390 13.11953545301436
ONEWEB-0085             
1 45438U 20020Q   26157.60234838 -.00000934  00000+0 -26704-2 0  9991
2 45438  87.8903  23.1738 0001889  92.1998 267.9346 13.11425657301285
ONEWEB-0096             
1 45439U 20020R   26157.60423737  .00012557  00000+0  35374-1 0  9994
2 45439  87.8908  23.1685 0002168  86.5885 273.5490 13.11363440301278
ONEWEB-0037             
1 45440U 20020S   26157.87025867 -.00000204  00000+0 -60832-3 0  9994
2 45440  87.8915  23.0894 0001855  85.9003 274.2337 13.11910743301346
ONEWEB-0042             
1 45441U 20020T   26157.59386183 -.00000011  00000+0 -65787-4 0  9996
2 45441  87.8914  23.1669 0001871  81.2399 278.8941 13.11420166301270
ONEWEB-0098             
1 45442U 20020U   26157.58976443 -.00000377  00000+0 -11000-2 0  9992
2 45442  87.8898  23.1775 0001643  84.7513 275.3802 13.11417501301258
ONEWEB-0055             
1 45443U 20020V   26157.64473468 -.00000395  00000+0 -11493-2 0  9995
2 45443  87.8904  23.1653 0001732  87.1409 272.9917 13.11413386301237
ONEWEB-0093             
1 45444U 20020W   26157.85355321  .00000477  00000+0  13093-2 0  9993
2 45444  87.8906  23.1159 0002052  74.3296 285.8058 13.11417197301322
ONEWEB-0029             
1 45445U 20020X   26157.57549286 -.00000462  00000+0 -13388-2 0  9991
2 45445  87.8898  23.1809 0001842  76.3117 283.8216 13.11419336301269
ONEWEB-0068             
1 45446U 20020Y   26157.85328477  .00000385  00000+0  10503-2 0  9998
2 45446  87.8907  23.1197 0001803  77.7398 282.3932 13.11415488301245
ONEWEB-0046             
1 45447U 20020Z   26157.61604709  .00000484  00000+0  13304-2 0  9990
2 45447  87.8900  23.1737 0001999  81.3540 278.7814 13.11417351301222
