OBJECT_NAME,OBJECT_ID,EPOCH,MEAN_MOTION,ECCENTRICITY,INCLINATION,RA_OF_ASC_NODE,ARG_OF_PERICENTER,MEAN_ANOMALY,EPHEMERIS_TYPE,CLASSIFICATION_TYPE,NORAD_CAT_ID,ELEMENT_SET_NO,REV_AT_EPOCH,BSTAR,MEAN_MOTION_DOT,MEAN_MOTION_DDOT
ONEWEB-0054,2020-008AD,2026-06-06T14:55:16.830048,13.10373460,.0001866,87.8859,38.3682,82.9395,277.1945,0,U,45158,999,30664,-.14337E-2,-.488E-5,0
ONEWEB-0056,2020-008AE,2026-06-06T14:14:31.220160,13.10370695,.0001907,87.8841,38.3705,93.3710,266.7635,0,U,45159,999,30679,.83916E-3,.306E-5,0
ONEWEB-0057,2020-008AF,2026-06-06T14:38:45.185280,13.10370485,.0002267,87.8846,38.3787,75.1476,284.9903,0,U,45160,999,30696,-.13059E-2,-.443E-5,0
ONEWEB-0058,2020-008AG,2026-06-06T08:49:47.149248,13.10369435,.0001558,87.8836,38.4342,79.4147,280.7155,0,U,45161,999,30700,.31475903E-3,.123E-5,0
ONEWEB-0059,2020-008AH,2026-06-06T14:14:52.802016,13.10369807,.000178,87.8837,38.3877,74.6392,285.4932,0,U,45162,999,30693,.84268E-3,.307E-5,0
ONEWEB-0062,2020-008AJ,2026-06-06T14:47:54.984768,13.10371794,.0001381,87.8846,38.3696,84.7301,275.3984,0,U,45163,999,30680,-.17854E-2,-.611E-5,0
ONEWEB-0065,2020-008AK,2026-06-06T10:05:53.378880,13.10374736,.00021205,87.8848,38.4168,84.6896,275.4473,0,U,45164,999,30647,.14474467E-2,.518E-5,0
ONEWEB-0066,2020-020A,2026-06-06T14:49:32.913120,13.11417402,.0001733,87.8900,23.1750,78.7801,281.3522,0,U,45424,999,30129,.14967E-2,.543E-5,0
ONEWEB-0067,2020-020B,2026-06-06T13:54:17.924832,13.11424157,.0002007,87.8923,23.1027,83.8184,276.3173,0,U,45425,999,30134,-.13842E-2,-.478E-5,0
ONEWEB-0080,2020-020C,2026-06-06T13:53:34.908000,13.11416528,.0001445,87.8905,23.1775,87.9055,272.2239,0,U,45426,999,30131,-.15565E-2,-.539E-5,0
ONEWEB-0090,2020-020D,2026-06-06T14:35:05.832096,13.11418475,.0001744,87.8907,23.1768,86.7947,273.3380,0,U,45427,999,30128,.11537E-2,.422E-5,0
ONEWEB-0061,2020-020E,2026-06-06T20:50:40.820064,13.11416042,.0001786,87.8905,23.1096,82.8037,277.3294,0,U,45428,999,30127,-.13332E-3,-.35E-6,0
ONEWEB-0081,2020-020F,2026-06-06T20:24:02.248128,13.11416870,.0001882,87.8902,23.1243,79.0406,281.0934,0,U,45429,999,30138,.13109E-2,.477E-5,0
ONEWEB-0069,2020-020G,2026-06-06T20:26:40.240032,13.11417813,.0001816,87.8903,23.1265,81.9430,278.1904,0,U,45430,999,30131,.11465E-2,.419E-5,0
ONEWEB-0031,2020-020H,2026-06-06T13:58:16.095936,13.11417492,.0001602,87.8895,23.1860,87.6654,272.4657,0,U,45431,999,30126,-.13626E-2,-.47E-5,0
ONEWEB-0027,2020-020J,2026-06-06T20:24:31.503168,13.16053829,.0001772,87.9154,7.9178,97.4650,262.6681,0,U,45432,999,30499,-.49096E-4,-.6E-7,0
ONEWEB-0064,2020-020K,2026-06-06T13:55:49.076832,13.11418997,.000168,87.8901,23.1780,90.0536,270.0785,0,U,45433,999,30129,-.14078E-2,-.486E-5,0
ONEWEB-0018,2020-020L,2026-06-06T14:42:13.542336,13.11418709,.0001597,87.8903,23.1712,71.9473,288.1829,0,U,45434,999,30124,.15288E-2,.555E-5,0
ONEWEB-0083,2020-020M,2026-06-06T14:27:47.039328,13.11418352,.0001726,87.8909,23.1663,83.0799,277.0525,0,U,45435,999,30128,.82157E-3,.304E-5,0
ONEWEB-0095,2020-020N,2026-06-06T14:15:33.824736,13.11417948,.0002402,87.8909,23.1763,99.1903,260.9496,0,U,45436,999,30128,-.22999E-3,-.69E-6,0
ONEWEB-0092,2020-020P,2026-06-06T20:31:56.522784,13.11953545,.0002116,87.8904,23.1168,87.1981,272.9390,0,U,45437,999,30143,.66494E-3,.25E-5,0
ONEWEB-0085,2020-020Q,2026-06-06T14:27:22.900032,13.11425657,.0001889,87.8903,23.1738,92.1998,267.9346,0,U,45438,999,30128,-.26704E-2,-.934E-5,0
ONEWEB-0096,2020-020R,2026-06-06T14:30:06.108768,13.11363440,.0002168,87.8908,23.1685,86.5885,273.5490,0,U,45439,999,30127,.35374E-1,.12557E-3,0
ONEWEB-0037,2020-020S,2026-06-06T20:53:10.349088,13.11910743,.0001855,87.8915,23.0894,85.9003,274.2337,0,U,45440,999,30134,-.60832E-3,-.204E-5,0
ONEWEB-0042,2020-020T,2026-06-06T14:15:09.662112,13.11420166,.0001871,87.8914,23.1669,81.2399,278.8941,0,U,45441,999,30127,-.65787E-4,-.11E-6,0
ONEWEB-0098,2020-020U,2026-06-06T14:09:15.646752,13.11417501,.0001643,87.8898,23.1775,84.7513,275.3802,0,U,45442,999,30125,-.11E-2,-.377E-5,0
ONEWEB-0055,2020-020V,2026-06-06T15:28:25.076352,13.11413386,.0001732,87.8904,23.1653,87.1409,272.9917,0,U,45443,999,30123,-.11493E-2,-.395E-5,0
ONEWEB-0093,2020-020W,2026-06-06T20:29:06.997344,13.11417197,.0002052,87.8906,23.1159,74.3296,285.8058,0,U,45444,999,30132,.13093E-2,.477E-5,0
ONEWEB-0029,2020-020X,2026-06-06T13:48:42.583104,13.11419336,.0001842,87.8898,23.1809,76.3117,283.8216,0,U,45445,999,30126,-.13388E-2,-.462E-5,0
ONEWEB-0068,2020-020Y,2026-06-06T20:28:43.804128,13.11415488,.0001803,87.8907,23.1197,77.7398,282.3932,0,U,45446,999,30124,.10503E-2,.385E-5,0
ONEWEB-0046,2020-020Z,2026-06-06T14:47:06.468576,13.11417351,.0001999,87.8900,23.1737,81.3540,278.7814,0,U,45447,999,30122,.13304E-2,.484E-5,0
